satname,norad_id,inclination_deg,eccentricity,mean_motion_rev_per_day,perigee_km,apogee_km,l1,l2
STARLINK-1143,45179,53.0481,0.0005692,15.58837232,387.1681522667668,394.8741619127977,1 45179U 20012B   26054.91667824  .00173390  00000+0  21597-2 0  9999,2 45179  53.0481  37.0939 0005692  38.6704 256.2542 15.58837232  5960
STARLINK-1202,45183,53.1602,0.0001418,15.30196311,474.2542772451761,476.1978910158359,1 45183U 20012F   26054.51519845  .00000857  00000+0  41070-4 0  9996,2 45183  53.1602 105.0895 0001418 103.2875 256.8284 15.30196311332786
STARLINK-1216,45185,53.1604,0.0001289,15.3020219,474.32513424299395,476.09192672075187,1 45185U 20012H   26054.44039891 -.00000126  00000+0  78675-5 0  9990,2 45185  53.1604 105.4178 0001289 122.4795 237.6330 15.30202190332713
STARLINK-1225,45187,53.1574,0.0001172,15.30196841,474.421287672144,476.02771560812926,1 45187U 20012K   26054.82919669  .00000511  00000+0  29377-4 0  9995,2 45187  53.1574 104.0506 0001172  87.9540 272.1595 15.30196841332818
STARLINK-1230,45189,53.1606,0.000141,15.3019101,474.27558564368155,476.2082384968853,1 45189U 20012M   26054.57744258  .00002389  00000+0  92785-4 0  9997,2 45189  53.1606 105.2806 0001410  86.7851 273.3311 15.30191010330000
STARLINK-1234,45190,53.0455,0.0004798,15.58620945,388.39922926096915,394.8955143441499,1 45190U 20012N   26054.24086336  .00085835  00000+0  10931-2 0  9997,2 45190  53.0455  35.7345 0004798 289.5304  70.5189 15.58620945333621
STARLINK-1269,45197,53.1633,0.0001677,15.30190517,474.0940722038167,476.39269598464216,1 45197U 20012V   26054.83551217  .00000189  00000+0  18530-4 0  9998,2 45197  53.1633 103.9379 0001677  84.2236 275.8956 15.30190517332795
STARLINK-1154,45198,53.0501,0.0007278,15.43672056,430.3239627605635,440.241576577293,1 45198U 20012W   26054.77586064  .00055650  00000+0  12147-2 0  9999,2 45198  53.0501  76.2488 0007278  32.1724 327.9724 15.43672056333148
STARLINK-1199,45201,53.14,0.0001241,15.25861138,487.3487056835347,489.05293073001394,1 45201U 20012Z   26054.91667824  .00930281  00000+0  33179-1 0  9993,2 45201  53.1400  87.7124 0001241  83.3115 228.4292 15.25861138  5830
STARLINK-1209,45206,53.0491,0.0005995,15.48241062,417.7948648368474,425.9480749922759,1 45206U 20012AE  26054.67942846  .00094493  00000+0  17497-2 0  9993,2 45206  53.0491  40.6368 0005995 246.9241 113.1135 15.48241062332741
STARLINK-1210,45207,53.0086,0.0002694,16.08838103,248.24696979552573,251.8182275752979,1 45207U 20012AF  26054.87575411  .00557522  16836-3  62385-3 0  9998,2 45207  53.0086 330.6552 0002694 168.0120 192.0978 16.08838103334683
STARLINK-1231,45212,53.0484,0.0004077,15.19721786,503.8738100026867,509.4876903962004,1 45212U 20012AL  26054.34931358  .00032771  00000+0  15226-2 0  9999,2 45212  53.0484  81.5743 0004077  24.1457 335.9728 15.19721786333046
STARLINK-1271,45217,53.1323,7.42e-05,15.24224256,492.60598468676926,493.6256786069853,1 45217U 20012AR  26054.91667824  .01412897  00000+0  52499-1 0  9995,2 45217  53.1323  87.8492 0000742  72.1582 244.6144 15.24224256  5726
STARLINK-1191,45222,53.1608,0.0001363,15.31029775,471.8048555287605,473.67240422546547,1 45222U 20012AW  26054.75807321  .00004291  00000+0  15305-3 0  9992,2 45222  53.1608  63.5442 0001363  89.7115 270.4042 15.31029775333387
STARLINK-1212,45223,53.0525,0.00058,15.48358439,417.58399942471715,425.4716105985308,1 45223U 20012AX  26054.91667824  .01327598  00000+0  22216-1 0  9999,2 45223  53.0525  56.2300 0005800  48.1162 245.1380 15.48358439  5940
STARLINK-1215,45225,53.1624,8.3e-05,15.30182591,474.6982175119947,475.83588258430336,1 45225U 20012AZ  26054.28644632 -.00001836  00000+0 -49928-4 0  9990,2 45225  53.1624  65.2047 0000830 112.1613 247.9475 15.30182591333272
STARLINK-1221,45227,53.0671,0.0002625,15.41333729,440.3817005204537,443.96236276206673,1 45227U 20012BB  26054.19523411  .00017593  00000+0  42420-3 0  9997,2 45227  53.0671 338.2682 0002625  12.2580 347.8488 15.41333729334470
STARLINK-1222,45228,53.0563,0.0003748,15.48598291,418.27743269657185,423.3739351244303,1 45228U 20012BC  26054.68467593  .00025339  00000+0  47367-3 0  9992,2 45228  53.0563  49.9078 0003748  46.4118 313.7200 15.48598291333454
STARLINK-1226,45229,53.1611,0.0001293,15.31046278,471.803587983889,473.57521169088704,1 45229U 20012BD  26054.44827925  .00001766  00000+0  69991-4 0  9992,2 45229  53.1611  64.7862 0001293  92.3286 267.7863 15.31046278333239
STARLINK-1227,45230,53.1604,0.0001315,15.31028621,471.841181805411,473.6429630014527,1 45230U 20012BE  26054.73706714 -.00000136  00000+0  74635-5 0  9991,2 45230  53.1604  63.7581 0001315  86.5891 273.5260 15.31028621333397
STARLINK-1246,45235,53.1596,0.0001393,15.30206633,474.2405953640191,476.14993373292236,1 45235U 20012BK  26054.51835462  .00002932  00000+0  11106-3 0  9992,2 45235  53.1596 105.0728 0001393  80.4110 279.7048 15.30206633332805
STARLINK-1270,45237,53.0502,0.0004112,15.44353241,430.47825433710113,436.07996294484747,1 45237U 20012BM  26054.29217215  .00074149  00000+0  15758-2 0  9994,2 45237  53.0502  56.1899 0004112  21.8626 338.2554 15.44353241333448
STARLINK-1279,45360,53.0436,0.0002782,15.54518439,401.66616301124577,405.43949523216907,1 45360U 20019A   26054.69452581  .00091852  00000+0  13609-2 0  9992,2 45360  53.0436 166.4564 0002782 157.4267 202.6866 15.54518439328495
STARLINK-1301,45361,53.0426,0.0004385,15.61721037,379.72088433805493,385.65012567494614,1 45361U 20019B   26054.91667824  .00120364  00000+0  13537-2 0  9997,2 45361  53.0426 171.5174 0004385 162.5917 199.1092 15.61721037  5917
STARLINK-1262,45366,53.0858,0.0002012,15.14166104,522.122747094546,524.8999703941054,1 45366U 20019G   26054.91667824  .00098185  00000+0  52646-2 0  9991,2 45366  53.0858 228.2842 0002012  95.4007 129.8885 15.14166104  5839
STARLINK-1273,45367,53.0516,5.24e-05,15.42809061,437.46617363911446,438.18048628169436,1 45367U 20019H   26054.48288588  .00066699  00000+0  14959-2 0  9990,2 45367  53.0516 222.3096 0000524 197.4730 162.6257 15.42809061327707
STARLINK-1276,45368,53.0549,0.0001365,15.06403241,546.2563160355976,548.1469334801559,1 45368U 20019J   26054.75182554  .00000040  00000+0  21569-4 0  9992,2 45368  53.0549 229.1869 0001365  91.2235 268.8910 15.06403241327639
STARLINK-1277,45369,53.0528,1.05e-05,15.46207815,427.75999453925033,427.90291987685123,1 45369U 20019K   26054.74427333  .00074052  00000+0  14776-2 0  9993,2 45369  53.0528 219.2746 0000105  54.9783 305.1233 15.46207815327777
STARLINK-1281,45370,53.0722,0.0001869,15.11374354,530.7162034412222,533.2992155336287,1 45370U 20019L   26054.91667824  .00116992  00000+0  67599-2 0  9996,2 45370  53.0722 228.4050 0001869 118.7216 139.8698 15.11374354  5835
STARLINK-1300,45374,53.0656,0.0002361,15.10241704,533.8299539330301,537.0945555011067,1 45374U 20019Q   26054.91667824  .00126512  00000+0  75305-2 0  9993,2 45374  53.0656 228.4324 0002361  59.5222  64.5540 15.10241704  5635
STARLINK-1302,45375,53.0533,0.000252,15.47401955,422.615312167758,426.0437553007605,1 45375U 20019R   26054.83893388  .00038092  00000+0  73683-3 0  9994,2 45375  53.0533 218.1750 0002520 210.3291 149.7570 15.47401955327798
STARLINK-1304,45376,53.051,0.0002611,15.45589557,427.86881402585004,431.42383847881865,1 45376U 20019S   26054.81925498  .00063278  00000+0  12927-2 0  9998,2 45376  53.0510 215.7427 0002611 168.3688 191.7379 15.45589557327822
STARLINK-1305,45377,53.046,0.0004171,15.49972521,413.9722074954898,419.6405492617323,1 45377U 20019T   26054.40935747  .00089030  00000+0  15534-2 0  9993,2 45377  53.0460 200.9408 0004171 114.3620 245.7823 15.49972521328008
STARLINK-1319,45379,53.0473,0.0003004,15.56051945,397.06059696660395,401.1323588401274,1 45379U 20019V   26054.77831351  .00073057  00000+0  10269-2 0  9993,2 45379  53.0473 197.5936 0003004 128.7985 231.3294 15.56051945328085
STARLINK-1266,45383,53.0509,0.0001267,15.43247083,435.6701277500897,437.39696526657553,1 45383U 20019Z   26054.67926361  .00022547  00000+0  50727-3 0  9995,2 45383  53.0509 199.6085 0001267 301.5383  58.5498 15.43247083328036
STARLINK-1267,45384,53.0515,0.0005529,15.47098833,421.45646474971636,428.9796147526731,1 45384U 20019AA  26054.80693124  .00084386  00000+0  16289-2 0  9992,2 45384  53.0515 193.4564 0005529 191.0833 169.0053 15.47098833328132
STARLINK-1272,45386,53.0443,0.0003152,15.53462775,404.4862802352354,408.76339409738375,1 45386U 20019AC  26054.91667824  .00076911  00000+0  11875-2 0  9995,2 45386  53.0443 176.3676 0003152 138.8846 240.8705 15.53462775  5907
STARLINK-1274,45387,53.0274,0.000587,15.45248654,426.65079302152117,434.64430608269413,1 45387U 20019AD  26054.69378331  .00038876  00000+0  80904-3 0  9991,2 45387  53.0274 169.7204 0005870 183.0686 177.0284 15.45248654328456
STARLINK-1280,45388,53.0435,0.0002882,15.62838393,377.51513378014533,381.41021423224265,1 45388U 20019AE  26054.91667824  .00121265  00000+0  13060-2 0  9998,2 45388  53.0435 190.0267 0002882 132.3853 235.4018 15.62838393  5972
STARLINK-1283,45389,53.0448,0.0007191,15.53085545,402.8437173935554,412.6031418634475,1 45389U 20019AF  26054.33336806  .00124907  00000+0  19372-2 0  9996,2 45389  53.0448 179.3774 0007191 180.9285 249.7451 15.53085545  5811
STARLINK-1284,45390,53.0497,6.23e-05,15.49093857,418.952097624453,419.7990676922509,1 45390U 20019AG  26054.81901788  .00075416  00000+0  13611-2 0  9998,2 45390  53.0497 197.5883 0000623 262.0892  98.0044 15.49093857328078
STARLINK-1297,45395,53.0494,0.0001197,15.51203134,412.3992323025468,414.0250812906834,1 45395U 20019AM  26054.84984994  .00089111  00000+0  14888-2 0  9990,2 45395  53.0494 197.3749 0001197 315.7509  44.3404 15.51203134327265
STARLINK-1307,45397,53.055,7.83e-05,15.49192249,418.5555420385326,419.61998743668937,1 45397U 20019AP  26054.81620414  .00028660  00000+0  52355-3 0  9997,2 45397  53.0550 197.2631 0000783  83.5064 276.6032 15.49192249327904
